[{"city": "Самора", "title": "Лифт 18", "street": "Юбилейная улица 83", "zipcode": "116963", "floors": 2, "year": 1686, "parking": "есть", "img_url": "https://upload.buildddd.ru/33522.webp", "rate": 4.7, "views": 98753}, {"city": "Малага", "title": "Курятник 37", "street": "Киевская улица 36", "zipcode": "326539", "floors": 3, "year": 1697, "parking": "нет", "img_url": "https://upload.abc-build.it/90763.svg", "rate": 4.0, "views": 98117}, {"city": "Мурсия", "title": "Альпакарий 85", "street": "Весенняя улица 82", "zipcode": "253228", "floors": 1, "year": 1803, "parking": "есть", "img_url": "https://upload.abc-build.it/270435.jpeg", "rate": 4.5, "views": 96460}, {"city": "Афины", "title": "Пандус 67", "street": "Киевская улица 2", "zipcode": "282604", "floors": 8, "year": 1670, "parking": "нет", "img_url": "https://upload.abc-build.it/476897.svg", "rate": 5.0, "views": 95246}, {"city": "Вроцлав", "title": "Детский сад 28", "street": "Полевая улица 90", "zipcode": "851589", "floors": 9, "year": 1645, "parking": "есть", "img_url": "https://upload.buildddd.ru/383779.jpeg", "rate": 4.4, "views": 95063}, {"city": "Вильявисиоса", "title": "Док 23", "street": "Петербургская улица 82", "zipcode": "362116", "floors": 2, "year": 1998, "parking": "нет", "img_url": "https://upload.buybuild.org/963820.svg", "rate": 4.9, "views": 94342}, {"city": "Льейда", "title": "Курятник 19", "street": "Московская улица 62", "zipcode": "575663", "floors": 8, "year": 1921, "parking": "есть", "img_url": "https://upload.freebuild.xyz/701207.png", "rate": 4.8, "views": 94023}, {"city": "Кадакес", "title": "Убежище 60", "street": "Московская улица 99", "zipcode": "326631", "floors": 9, "year": 1617, "parking": "нет", "img_url": "https://upload.buildddd.ru/896636.svg", "rate": 4.1, "views": 93541}, {"city": "Трухильо", "title": "Офис 79", "street": "Зеленая улица 9", "zipcode": "715038", "floors": 4, "year": 2001, "parking": "нет", "img_url": "https://upload.build.com/81232.png", "rate": 4.3, "views": 93386}, {"city": "Санхенхо", "title": "Склад 97", "street": "Центральная улица 48", "zipcode": "274727", "floors": 2, "year": 1960, "parking": "нет", "img_url": "https://upload.freebuild.xyz/402507.png", "rate": 4.7, "views": 92055}, {"city": "Картахена", "title": "Пандус 3", "street": "Горная улица 42", "zipcode": "565981", "floors": 6, "year": 1973, "parking": "нет", "img_url": "https://upload.build.com/57615.svg", "rate": 5.0, "views": 91700}, {"city": "Хихон", "title": "ТЭЦ 35", "street": "Школьная улица 10", "zipcode": "667473", "floors": 7, "year": 1828, "parking": "нет", "img_url": "https://upload.abc-build.it/970823.jpeg", "rate": 4.0, "views": 91270}, {"city": "Вроцлав", "title": "Библиотека 18", "street": "Центральная улица 60", "zipcode": "379928", "floors": 7, "year": 1798, "parking": "есть", "img_url": "https://upload.freebuild.xyz/86060.webp", "rate": 4.4, "views": 89002}, {"city": "Тирана", "title": "Фабрика 94", "street": "Зимняя улица 98", "zipcode": "594363", "floors": 4, "year": 1787, "parking": "нет", "img_url": "https://upload.abc-build.it/653325.webp", "rate": 4.8, "views": 87341}, {"city": "Луарка", "title": "Супермаркет 37", "street": "Вроцлавская улица 27", "zipcode": "691293", "floors": 5, "year": 1854, "parking": "нет", "img_url": "https://upload.build.com/138288.png", "rate": 4.9, "views": 86837}, {"city": "Камбадос", "title": "Нора 2", "street": "Парковая улица 83", "zipcode": "731259", "floors": 10, "year": 1956, "parking": "есть", "img_url": "https://upload.buildddd.ru/147031.jpeg", "rate": 4.4, "views": 86706}, {"city": "Ереван", "title": "Лосятник 31", "street": "Минская улица 81", "zipcode": "800457", "floors": 4, "year": 2010, "parking": "есть", "img_url": "https://upload.abc-build.it/63138.jpeg", "rate": 4.0, "views": 86080}, {"city": "Вильнюс", "title": "Академия 1", "street": "Варшавская улица 92", "zipcode": "419717", "floors": 10, "year": 1676, "parking": "нет", "img_url": "https://upload.abc-build.it/746868.png", "rate": 4.9, "views": 85890}, {"city": "Афины", "title": "Виадук 63", "street": "Петербургская улица 45", "zipcode": "735507", "floors": 2, "year": 1804, "parking": "есть", "img_url": "https://upload.buybuild.org/285032.jpg", "rate": 5.0, "views": 85480}, {"city": "Подгорица", "title": "Офис 67", "street": "Парковая улица 12", "zipcode": "306981", "floors": 2, "year": 2002, "parking": "нет", "img_url": "https://upload.build.com/968887.jpg", "rate": 4.9, "views": 85338}, {"city": "Сантьяго-де-Компостела", "title": "Парк 93", "street": "Киевская улица 67", "zipcode": "217099", "floors": 9, "year": 1865, "parking": "нет", "img_url": "https://upload.buildddd.ru/824389.webp", "rate": 4.2, "views": 85086}, {"city": "Малага", "title": "Шале 66", "street": "Весенняя улица 56", "zipcode": "488441", "floors": 5, "year": 1795, "parking": "есть", "img_url": "https://upload.buybuild.org/857147.jpg", "rate": 5.0, "views": 84703}, {"city": "Навалькарнеро", "title": "Лосятник 15", "street": "Лесная улица 20", "zipcode": "932396", "floors": 2, "year": 1835, "parking": "есть", "img_url": "https://upload.buildddd.ru/519623.jpeg", "rate": 4.0, "views": 84650}, {"city": "Севилья", "title": "Университет 70", "street": "Вроцлавская улица 82", "zipcode": "888232", "floors": 6, "year": 1943, "parking": "есть", "img_url": "https://upload.build.com/499990.jpg", "rate": 4.4, "views": 84089}, {"city": "Кордова", "title": "Кладбище 54", "street": "Зеленая улица 58", "zipcode": "857014", "floors": 2, "year": 1650, "parking": "нет", "img_url": "https://upload.buybuild.org/127832.jpg", "rate": 4.1, "views": 84044}, {"city": "Луго", "title": "Архив 65", "street": "Московская улица 54", "zipcode": "750815", "floors": 1, "year": 1705, "parking": "нет", "img_url": "https://upload.freebuild.xyz/507038.svg", "rate": 4.9, "views": 83941}, {"city": "Мадрид", "title": "Склад 94", "street": "Зимняя улица 59", "zipcode": "912875", "floors": 2, "year": 1840, "parking": "есть", "img_url": "https://upload.build.com/620810.svg", "rate": 4.4, "views": 83667}, {"city": "Афины", "title": "Верфь 85", "street": "Киевская улица 16", "zipcode": "979872", "floors": 9, "year": 1855, "parking": "нет", "img_url": "https://upload.buildddd.ru/619206.png", "rate": 5.0, "views": 81752}, {"city": "Овьедо", "title": "Теплотрасса 49", "street": "Спортивная улица 81", "zipcode": "278687", "floors": 2, "year": 1830, "parking": "нет", "img_url": "https://upload.buildddd.ru/871202.svg", "rate": 5.0, "views": 81426}, {"city": "Сеговия", "title": "Электростанция 55", "street": "Садовая улица 5", "zipcode": "594199", "floors": 9, "year": 1912, "parking": "есть", "img_url": "https://upload.buildddd.ru/597073.webp", "rate": 5.0, "views": 79213}, {"city": "Киев", "title": "Замок 52", "street": "Московская улица 44", "zipcode": "604450", "floors": 10, "year": 1621, "parking": "есть", "img_url": "https://upload.buybuild.org/176051.png", "rate": 4.1, "views": 78905}, {"city": "Бильбао", "title": "Страусятник 24", "street": "Центральная улица 68", "zipcode": "116838", "floors": 7, "year": 1643, "parking": "есть", "img_url": "https://upload.build.com/683219.jpg", "rate": 4.7, "views": 78751}, {"city": "Краков", "title": "Театр 49", "street": "Зимняя улица 21", "zipcode": "702293", "floors": 7, "year": 1834, "parking": "есть", "img_url": "https://upload.buildddd.ru/494734.jpeg", "rate": 4.3, "views": 78600}, {"city": "Ереван", "title": "Бункер 33", "street": "Минская улица 67", "zipcode": "981717", "floors": 4, "year": 1769, "parking": "нет", "img_url": "https://upload.build.com/104298.svg", "rate": 4.9, "views": 78431}, {"city": "Тарраса", "title": "Нора 76", "street": "Вроцлавская улица 11", "zipcode": "737377", "floors": 7, "year": 1708, "parking": "есть", "img_url": "https://upload.buildddd.ru/561705.png", "rate": 4.1, "views": 77709}, {"city": "Мерида", "title": "Офис 40", "street": "Речная улица 72", "zipcode": "864897", "floors": 10, "year": 1774, "parking": "есть", "img_url": "https://upload.buybuild.org/265466.svg", "rate": 4.0, "views": 77457}, {"city": "Эль-Пуэрто-де-Санта-Мария", "title": "Эскалатор 61", "street": "Морская улица 47", "zipcode": "430093", "floors": 5, "year": 1669, "parking": "есть", "img_url": "https://upload.abc-build.it/121242.webp", "rate": 4.7, "views": 76804}, {"city": "Лас-Росас", "title": "Кладбище 36", "street": "Лесная улица 17", "zipcode": "954880", "floors": 2, "year": 1880, "parking": "нет", "img_url": "https://upload.abc-build.it/817769.png", "rate": 4.2, "views": 76688}, {"city": "Рига", "title": "Больница 95", "street": "Солнечная улица 23", "zipcode": "812170", "floors": 6, "year": 1705, "parking": "нет", "img_url": "https://upload.freebuild.xyz/286521.jpg", "rate": 4.1, "views": 76258}, {"city": "Аликанте", "title": "Пирс 60", "street": "Зеленая улица 46", "zipcode": "884447", "floors": 4, "year": 1991, "parking": "нет", "img_url": "https://upload.abc-build.it/450267.webp", "rate": 4.4, "views": 76102}, {"city": "Куэнка", "title": "Коровник 48", "street": "Осенняя улица 51", "zipcode": "255385", "floors": 4, "year": 1919, "parking": "нет", "img_url": "https://upload.abc-build.it/600006.webp", "rate": 4.2, "views": 75884}, {"city": "Сьюдад-Реаль", "title": "Бункер 23", "street": "Лесная улица 16", "zipcode": "749028", "floors": 10, "year": 2013, "parking": "нет", "img_url": "https://upload.freebuild.xyz/846193.png", "rate": 4.2, "views": 75202}, {"city": "Любляна", "title": "Скворечник 23", "street": "Речная улица 15", "zipcode": "906236", "floors": 4, "year": 1633, "parking": "есть", "img_url": "https://upload.buybuild.org/135639.jpeg", "rate": 4.2, "views": 74400}, {"city": "Санхенхо", "title": "Курятник 11", "street": "Полевая улица 11", "zipcode": "154955", "floors": 5, "year": 1803, "parking": "есть", "img_url": "https://upload.buybuild.org/323455.jpeg", "rate": 4.5, "views": 74253}, {"city": "Вроцлав", "title": "Утятник 56", "street": "Московская улица 16", "zipcode": "869105", "floors": 5, "year": 1774, "parking": "нет", "img_url": "https://upload.buybuild.org/967153.jpeg", "rate": 4.0, "views": 74023}, {"city": "Виго", "title": "Академия 92", "street": "Юбилейная улица 92", "zipcode": "670567", "floors": 6, "year": 1771, "parking": "есть", "img_url": "https://upload.abc-build.it/756037.svg", "rate": 4.8, "views": 73475}, {"city": "Рига", "title": "Мансарда 50", "street": "Зеленая улица 50", "zipcode": "118139", "floors": 8, "year": 1982, "parking": "есть", "img_url": "https://upload.freebuild.xyz/518297.webp", "rate": 4.7, "views": 73453}, {"city": "Кадакес", "title": "Йодль 60", "street": "Юбилейная улица 91", "zipcode": "318535", "floors": 6, "year": 1703, "parking": "нет", "img_url": "https://upload.freebuild.xyz/741571.svg", "rate": 4.1, "views": 73123}, {"city": "Барселона", "title": "Парк 63", "street": "Минская улица 93", "zipcode": "642496", "floors": 2, "year": 1711, "parking": "есть", "img_url": "https://upload.freebuild.xyz/983452.jpg", "rate": 4.2, "views": 71710}, {"city": "Сан-Себастьян", "title": "Осатаник 43", "street": "Полевая улица 96", "zipcode": "894522", "floors": 3, "year": 1722, "parking": "есть", "img_url": "https://upload.freebuild.xyz/749405.webp", "rate": 4.2, "views": 71627}, {"city": "Сан-Себастьян", "title": "Замок 98", "street": "Минская улица 42", "zipcode": "502825", "floors": 5, "year": 1673, "parking": "есть", "img_url": "https://upload.buildddd.ru/719291.jpeg", "rate": 4.4, "views": 70411}, {"city": "Будапешт", "title": "Дворец 93", "street": "Летняя улица 62", "zipcode": "564586", "floors": 7, "year": 1633, "parking": "есть", "img_url": "https://upload.freebuild.xyz/472599.jpg", "rate": 4.7, "views": 70004}, {"city": "Луарка", "title": "Автомойка 95", "street": "Зеленая улица 72", "zipcode": "182903", "floors": 3, "year": 2018, "parking": "есть", "img_url": "https://upload.buildddd.ru/454732.webp", "rate": 4.6, "views": 69763}, {"city": "Будапешт", "title": "Псарня 74", "street": "Краковская улица 22", "zipcode": "823102", "floors": 6, "year": 1712, "parking": "нет", "img_url": "https://upload.build.com/493456.png", "rate": 4.0, "views": 69010}, {"city": "Куэнка", "title": "Вилла 63", "street": "Летняя улица 11", "zipcode": "619815", "floors": 1, "year": 2005, "parking": "нет", "img_url": "https://upload.buildddd.ru/850859.jpg", "rate": 4.2, "views": 68973}, {"city": "Артейхо", "title": "Аэропорт 35", "street": "Варшавская улица 31", "zipcode": "826543", "floors": 2, "year": 1646, "parking": "есть", "img_url": "https://upload.buildddd.ru/310838.webp", "rate": 4.0, "views": 68565}, {"city": "Навалькарнеро", "title": "Башня 13", "street": "Садовая улица 89", "zipcode": "294353", "floors": 1, "year": 1684, "parking": "есть", "img_url": "https://upload.build.com/710760.jpg", "rate": 4.1, "views": 68017}, {"city": "Мартоса", "title": "Порт 69", "street": "Лесная улица 82", "zipcode": "774314", "floors": 2, "year": 1847, "parking": "нет", "img_url": "https://upload.freebuild.xyz/699288.webp", "rate": 4.9, "views": 67256}, {"city": "Киев", "title": "Мансарда 69", "street": "Парковая улица 17", "zipcode": "962565", "floors": 9, "year": 1771, "parking": "есть", "img_url": "https://upload.buybuild.org/694962.jpg", "rate": 5.0, "views": 67096}, {"city": "Барселона", "title": "Отель 18", "street": "Школьная улица 18", "zipcode": "206558", "floors": 7, "year": 1979, "parking": "есть", "img_url": "https://upload.buybuild.org/481095.webp", "rate": 4.5, "views": 66931}, {"city": "Кадакес", "title": "Пасека 100", "street": "Зимняя улица 98", "zipcode": "303640", "floors": 10, "year": 1625, "parking": "есть", "img_url": "https://upload.freebuild.xyz/160708.jpeg", "rate": 4.4, "views": 65808}, {"city": "Скопье", "title": "Мансарда 35", "street": "Весенняя улица 43", "zipcode": "438109", "floors": 10, "year": 1638, "parking": "нет", "img_url": "https://upload.abc-build.it/279906.webp", "rate": 4.1, "views": 65577}, {"city": "Куэнка", "title": "Эскалатор 15", "street": "Зеленая улица 36", "zipcode": "688695", "floors": 1, "year": 1766, "parking": "нет", "img_url": "https://upload.buybuild.org/535578.png", "rate": 4.9, "views": 64970}, {"city": "Краков", "title": "Музей 100", "street": "Осенняя улица 60", "zipcode": "390306", "floors": 1, "year": 1734, "parking": "нет", "img_url": "https://upload.buildddd.ru/13738.webp", "rate": 5.0, "views": 64876}, {"city": "Ла-Корунья", "title": "Маяк 6", "street": "Парковая улица 25", "zipcode": "897371", "floors": 10, "year": 1628, "parking": "есть", "img_url": "https://upload.build.com/243776.svg", "rate": 4.6, "views": 63851}, {"city": "Тбилиси", "title": "Крольчатник 61", "street": "Лесная улица 55", "zipcode": "430303", "floors": 1, "year": 1760, "parking": "нет", "img_url": "https://upload.build.com/574907.svg", "rate": 4.3, "views": 63474}, {"city": "Бильбао", "title": "Переправа 71", "street": "Зимняя улица 86", "zipcode": "126642", "floors": 8, "year": 1964, "parking": "есть", "img_url": "https://upload.freebuild.xyz/470345.jpeg", "rate": 4.1, "views": 63285}, {"city": "Куэнка", "title": "Нефтепровод 22", "street": "Школьная улица 11", "zipcode": "224109", "floors": 2, "year": 1771, "parking": "нет", "img_url": "https://upload.abc-build.it/538137.webp", "rate": 4.3, "views": 63212}, {"city": "Бишкек", "title": "Пандус 42", "street": "Летняя улица 3", "zipcode": "570152", "floors": 6, "year": 1922, "parking": "нет", "img_url": "https://upload.buildddd.ru/269433.webp", "rate": 4.1, "views": 63131}, {"city": "Севилья", "title": "Коровник 100", "street": "Осенняя улица 42", "zipcode": "802770", "floors": 2, "year": 1788, "parking": "нет", "img_url": "https://upload.buildddd.ru/448485.png", "rate": 4.4, "views": 62970}, {"city": "Бланес", "title": "Развязка 34", "street": "Садовая улица 63", "zipcode": "581112", "floors": 9, "year": 1894, "parking": "есть", "img_url": "https://upload.buildddd.ru/993632.jpeg", "rate": 4.3, "views": 62806}, {"city": "Сеговия", "title": "Кладбище 10", "street": "Летняя улица 88", "zipcode": "197865", "floors": 4, "year": 2010, "parking": "нет", "img_url": "https://upload.freebuild.xyz/380523.png", "rate": 4.3, "views": 62668}, {"city": "Монсон", "title": "Больница 3", "street": "Минская улица 33", "zipcode": "108829", "floors": 3, "year": 1961, "parking": "нет", "img_url": "https://upload.abc-build.it/304374.webp", "rate": 4.8, "views": 62424}, {"city": "Мурсия", "title": "Мансарда 86", "street": "Центральная улица 77", "zipcode": "592948", "floors": 9, "year": 1734, "parking": "есть", "img_url": "https://upload.abc-build.it/481775.svg", "rate": 4.8, "views": 61636}, {"city": "Загреб", "title": "Сеть 7", "street": "Лесная улица 56", "zipcode": "395033", "floors": 2, "year": 1753, "parking": "есть", "img_url": "https://upload.buybuild.org/173557.jpg", "rate": 4.5, "views": 60985}, {"city": "Касерес", "title": "Страусятник 66", "street": "Киевская улица 46", "zipcode": "858180", "floors": 8, "year": 1716, "parking": "есть", "img_url": "https://upload.buildddd.ru/304416.png", "rate": 4.9, "views": 60878}, {"city": "Барселона", "title": "Жилой дом 59", "street": "Киевская улица 44", "zipcode": "192040", "floors": 1, "year": 1892, "parking": "нет", "img_url": "https://upload.abc-build.it/403877.jpeg", "rate": 4.9, "views": 60437}, {"city": "Вальядолид", "title": "Коттедж 82", "street": "Летняя улица 2", "zipcode": "939520", "floors": 9, "year": 1695, "parking": "есть", "img_url": "https://upload.buybuild.org/77053.jpg", "rate": 4.5, "views": 60327}, {"city": "Овьедо", "title": "Банк 77", "street": "Осенняя улица 66", "zipcode": "292781", "floors": 10, "year": 1800, "parking": "нет", "img_url": "https://upload.freebuild.xyz/712032.jpeg", "rate": 4.7, "views": 60176}, {"city": "Рига", "title": "Эскалатор 51", "street": "Юбилейная улица 17", "zipcode": "736284", "floors": 5, "year": 2017, "parking": "нет", "img_url": "https://upload.buildddd.ru/667879.jpeg", "rate": 4.5, "views": 59845}, {"city": "Москва", "title": "Водопровод 42", "street": "Краковская улица 39", "zipcode": "330039", "floors": 10, "year": 1610, "parking": "есть", "img_url": "https://upload.freebuild.xyz/522189.png", "rate": 4.3, "views": 59740}, {"city": "Тирана", "title": "Скворечник 64", "street": "Речная улица 77", "zipcode": "996335", "floors": 2, "year": 1931, "parking": "есть", "img_url": "https://upload.buybuild.org/949695.png", "rate": 4.3, "views": 59257}, {"city": "София", "title": "Порт 60", "street": "Осенняя улица 90", "zipcode": "398433", "floors": 4, "year": 1951, "parking": "есть", "img_url": "https://upload.buybuild.org/973833.svg", "rate": 4.0, "views": 58751}, {"city": "Бильбао", "title": "Бункер 93", "street": "Минская улица 44", "zipcode": "696076", "floors": 1, "year": 1624, "parking": "есть", "img_url": "https://upload.abc-build.it/69569.webp", "rate": 4.5, "views": 58534}, {"city": "Тудела", "title": "Башня 18", "street": "Московская улица 25", "zipcode": "540883", "floors": 2, "year": 1852, "parking": "нет", "img_url": "https://upload.build.com/763953.webp", "rate": 4.6, "views": 57197}, {"city": "Севилья", "title": "Лосятник 95", "street": "Московская улица 36", "zipcode": "844080", "floors": 4, "year": 1728, "parking": "нет", "img_url": "https://upload.build.com/20462.webp", "rate": 4.8, "views": 56842}, {"city": "Мурсия", "title": "Цирк 52", "street": "Горная улица 85", "zipcode": "356223", "floors": 9, "year": 1972, "parking": "есть", "img_url": "https://upload.abc-build.it/985869.svg", "rate": 4.5, "views": 56631}, {"city": "Подгорица", "title": "Бомбоубежище 17", "street": "Летняя улица 83", "zipcode": "319753", "floors": 7, "year": 1847, "parking": "есть", "img_url": "https://upload.buybuild.org/334498.jpeg", "rate": 4.4, "views": 56063}, {"city": "Хихон", "title": "Теплотрасса 28", "street": "Вроцлавская улица 73", "zipcode": "398842", "floors": 9, "year": 1972, "parking": "есть", "img_url": "https://upload.build.com/159069.jpg", "rate": 4.0, "views": 55982}, {"city": "Гранада", "title": "Эскалатор 4", "street": "Парковая улица 29", "zipcode": "343590", "floors": 10, "year": 1766, "parking": "нет", "img_url": "https://upload.buildddd.ru/641199.jpeg", "rate": 4.8, "views": 55254}, {"city": "Аликанте", "title": "Аэропорт 91", "street": "Летняя улица 4", "zipcode": "972168", "floors": 1, "year": 1670, "parking": "есть", "img_url": "https://upload.buildddd.ru/800410.webp", "rate": 4.7, "views": 54736}, {"city": "Куэнка", "title": "Страусятник 8", "street": "Варшавская улица 63", "zipcode": "987777", "floors": 8, "year": 1883, "parking": "нет", "img_url": "https://upload.buildddd.ru/690839.png", "rate": 4.8, "views": 53239}, {"city": "Льейда", "title": "Офис 75", "street": "Зимняя улица 69", "zipcode": "667576", "floors": 6, "year": 2016, "parking": "есть", "img_url": "https://upload.abc-build.it/465487.jpg", "rate": 4.9, "views": 52898}, {"city": "Мурсия", "title": "Дворец 88", "street": "Спортивная улица 39", "zipcode": "309745", "floors": 8, "year": 1609, "parking": "есть", "img_url": "https://upload.buybuild.org/58515.webp", "rate": 4.4, "views": 51833}, {"city": "Тбилиси", "title": "Муравейник 11", "street": "Полевая улица 62", "zipcode": "746893", "floors": 2, "year": 1787, "parking": "есть", "img_url": "https://upload.buybuild.org/334376.png", "rate": 4.4, "views": 51130}, {"city": "Махадаонда", "title": "Кинотеатр 99", "street": "Зеленая улица 85", "zipcode": "776386", "floors": 5, "year": 1963, "parking": "нет", "img_url": "https://upload.freebuild.xyz/71438.svg", "rate": 4.6, "views": 51090}, {"city": "Скопье", "title": "Мост 36", "street": "Краковская улица 77", "zipcode": "253346", "floors": 7, "year": 1882, "parking": "есть", "img_url": "https://upload.abc-build.it/891058.jpeg", "rate": 4.6, "views": 51026}, {"city": "Луго", "title": "Псарня 53", "street": "Парковая улица 35", "zipcode": "101678", "floors": 5, "year": 1871, "parking": "есть", "img_url": "https://upload.freebuild.xyz/421053.webp", "rate": 4.1, "views": 50831}, {"city": "Фигерас", "title": "Вокзал 46", "street": "Московская улица 81", "zipcode": "153561", "floors": 10, "year": 1876, "parking": "нет", "img_url": "https://upload.buildddd.ru/265824.jpg", "rate": 4.0, "views": 50313}, {"city": "Касерес", "title": "Нефтепровод 49", "street": "Летняя улица 49", "zipcode": "327108", "floors": 1, "year": 1905, "parking": "нет", "img_url": "https://upload.abc-build.it/553321.webp", "rate": 4.5, "views": 49793}, {"city": "Тбилиси", "title": "Усадьба 89", "street": "Садовая улица 27", "zipcode": "504937", "floors": 9, "year": 1832, "parking": "есть", "img_url": "https://upload.buildddd.ru/244316.jpg", "rate": 5.0, "views": 49710}, {"city": "Эльче", "title": "Магазин 80", "street": "Осенняя улица 81", "zipcode": "241008", "floors": 4, "year": 1881, "parking": "есть", "img_url": "https://upload.freebuild.xyz/344300.jpeg", "rate": 4.9, "views": 49473}, {"city": "Луарка", "title": "Банк 8", "street": "Парковая улица 89", "zipcode": "471280", "floors": 7, "year": 1717, "parking": "есть", "img_url": "https://upload.abc-build.it/532943.svg", "rate": 4.2, "views": 47639}, {"city": "Трухильо", "title": "Волчатник 89", "street": "Центральная улица 52", "zipcode": "172359", "floors": 6, "year": 1955, "parking": "есть", "img_url": "https://upload.freebuild.xyz/212330.png", "rate": 4.7, "views": 47453}, {"city": "Прага", "title": "Курятник 1", "street": "Школьная улица 54", "zipcode": "669397", "floors": 1, "year": 1906, "parking": "нет", "img_url": "https://upload.buybuild.org/576971.svg", "rate": 4.7, "views": 47386}, {"city": "Сантьяго-де-Компостела", "title": "Пирс 12", "street": "Садовая улица 9", "zipcode": "152027", "floors": 9, "year": 1738, "parking": "есть", "img_url": "https://upload.buybuild.org/850337.png", "rate": 4.5, "views": 47187}, {"city": "Луго", "title": "Страусятник 88", "street": "Морская улица 37", "zipcode": "293010", "floors": 3, "year": 1782, "parking": "нет", "img_url": "https://upload.buybuild.org/527484.webp", "rate": 4.4, "views": 46541}, {"city": "Афины", "title": "Чердак 89", "street": "Варшавская улица 64", "zipcode": "235287", "floors": 1, "year": 1666, "parking": "есть", "img_url": "https://upload.buildddd.ru/494096.jpeg", "rate": 4.2, "views": 45980}, {"city": "Касерес", "title": "Нора 94", "street": "Зимняя улица 30", "zipcode": "957679", "floors": 9, "year": 1979, "parking": "есть", "img_url": "https://upload.freebuild.xyz/399599.jpeg", "rate": 4.7, "views": 45646}, {"city": "Навалькарнеро", "title": "Лестница 24", "street": "Летняя улица 8", "zipcode": "684681", "floors": 1, "year": 1843, "parking": "нет", "img_url": "https://upload.buildddd.ru/490960.png", "rate": 4.4, "views": 45158}, {"city": "Фигерас", "title": "Лосятник 77", "street": "Полевая улица 44", "zipcode": "663935", "floors": 5, "year": 1894, "parking": "есть", "img_url": "https://upload.freebuild.xyz/814948.png", "rate": 4.5, "views": 45126}, {"city": "Валенсия", "title": "Кубло 45", "street": "Краковская улица 64", "zipcode": "520745", "floors": 1, "year": 1855, "parking": "есть", "img_url": "https://upload.build.com/26701.jpeg", "rate": 4.9, "views": 45041}, {"city": "Сантьяго-де-Компостела", "title": "Сеть 35", "street": "Зеленая улица 31", "zipcode": "155513", "floors": 4, "year": 1720, "parking": "есть", "img_url": "https://upload.freebuild.xyz/280659.png", "rate": 4.6, "views": 43661}, {"city": "Сараево", "title": "Почта 31", "street": "Солнечная улица 46", "zipcode": "281731", "floors": 3, "year": 1733, "parking": "нет", "img_url": "https://upload.abc-build.it/197501.jpg", "rate": 4.1, "views": 40965}, {"city": "Навалькарнеро", "title": "Бомбоубежище 12", "street": "Лесная улица 17", "zipcode": "705267", "floors": 9, "year": 1978, "parking": "есть", "img_url": "https://upload.freebuild.xyz/217661.svg", "rate": 4.4, "views": 40797}, {"city": "Картахена", "title": "Конюшня 97", "street": "Морская улица 42", "zipcode": "256039", "floors": 7, "year": 1847, "parking": "нет", "img_url": "https://upload.freebuild.xyz/560453.svg", "rate": 4.9, "views": 40719}, {"city": "Артейхо", "title": "Лосятник 8", "street": "Зимняя улица 89", "zipcode": "879558", "floors": 8, "year": 1889, "parking": "есть", "img_url": "https://upload.freebuild.xyz/894638.webp", "rate": 4.8, "views": 40188}, {"city": "Малага", "title": "Школа 50", "street": "Школьная улица 23", "zipcode": "357610", "floors": 1, "year": 1802, "parking": "нет", "img_url": "https://upload.abc-build.it/288738.jpeg", "rate": 4.5, "views": 40182}, {"city": "Белград", "title": "Лосятник 10", "street": "Горная улица 53", "zipcode": "192224", "floors": 10, "year": 1682, "parking": "нет", "img_url": "https://upload.buybuild.org/836631.png", "rate": 4.0, "views": 39992}, {"city": "Мартоса", "title": "Пандус 77", "street": "Московская улица 32", "zipcode": "687881", "floors": 1, "year": 1687, "parking": "есть", "img_url": "https://upload.buybuild.org/455353.webp", "rate": 4.8, "views": 39250}, {"city": "Тирана", "title": "Особняк 58", "street": "Морская улица 50", "zipcode": "567491", "floors": 8, "year": 1921, "parking": "нет", "img_url": "https://upload.buildddd.ru/540046.webp", "rate": 4.6, "views": 38994}, {"city": "Краков", "title": "Волчатник 84", "street": "Морская улица 59", "zipcode": "250115", "floors": 5, "year": 1971, "parking": "нет", "img_url": "https://upload.abc-build.it/918076.png", "rate": 4.9, "views": 37614}, {"city": "Гранада", "title": "Дупло 88", "street": "Варшавская улица 47", "zipcode": "551726", "floors": 1, "year": 1752, "parking": "нет", "img_url": "https://upload.buybuild.org/790441.jpg", "rate": 4.1, "views": 37195}, {"city": "Бильбао", "title": "Дуплянка 81", "street": "Весенняя улица 73", "zipcode": "532440", "floors": 3, "year": 1844, "parking": "нет", "img_url": "https://upload.build.com/522815.jpg", "rate": 4.0, "views": 36272}, {"city": "Тарраса", "title": "Свиноферма 44", "street": "Солнечная улица 42", "zipcode": "335859", "floors": 2, "year": 1631, "parking": "есть", "img_url": "https://upload.freebuild.xyz/705453.jpeg", "rate": 4.3, "views": 34983}, {"city": "Тирана", "title": "Автомойка 84", "street": "Краковская улица 17", "zipcode": "381256", "floors": 5, "year": 1837, "parking": "нет", "img_url": "https://upload.buybuild.org/365434.webp", "rate": 4.8, "views": 34944}, {"city": "Фигерас", "title": "Пасека 39", "street": "Зимняя улица 83", "zipcode": "194242", "floors": 9, "year": 1612, "parking": "нет", "img_url": "https://upload.abc-build.it/498871.webp", "rate": 4.8, "views": 34817}, {"city": "Барселона", "title": "Кубло 26", "street": "Парковая улица 88", "zipcode": "395601", "floors": 9, "year": 1719, "parking": "нет", "img_url": "https://upload.buybuild.org/380150.jpg", "rate": 4.3, "views": 34652}, {"city": "Скопье", "title": "Бункер 94", "street": "Вроцлавская улица 24", "zipcode": "751439", "floors": 5, "year": 1880, "parking": "есть", "img_url": "https://upload.abc-build.it/753608.png", "rate": 4.0, "views": 34416}, {"city": "Ташкент", "title": "Склад 88", "street": "Лесная улица 63", "zipcode": "968164", "floors": 3, "year": 1808, "parking": "нет", "img_url": "https://upload.build.com/348951.webp", "rate": 4.5, "views": 34297}, {"city": "Алма-Ата", "title": "Водопровод 44", "street": "Спортивная улица 75", "zipcode": "658578", "floors": 8, "year": 1682, "parking": "нет", "img_url": "https://upload.buildddd.ru/591584.jpg", "rate": 4.3, "views": 34231}, {"city": "Севилья", "title": "Почта 17", "street": "Зимняя улица 54", "zipcode": "838399", "floors": 9, "year": 1984, "parking": "есть", "img_url": "https://upload.buybuild.org/462129.webp", "rate": 4.9, "views": 33077}, {"city": "Валенсия", "title": "Мансарда 44", "street": "Речная улица 76", "zipcode": "511678", "floors": 2, "year": 1883, "parking": "нет", "img_url": "https://upload.buildddd.ru/407235.jpg", "rate": 5.0, "views": 33043}, {"city": "Сан-Себастьян", "title": "Театр 86", "street": "Садовая улица 100", "zipcode": "894182", "floors": 6, "year": 1917, "parking": "нет", "img_url": "https://upload.build.com/546602.webp", "rate": 4.9, "views": 32607}, {"city": "Вальядолид", "title": "Музей 89", "street": "Спортивная улица 17", "zipcode": "486753", "floors": 4, "year": 1990, "parking": "нет", "img_url": "https://upload.buildddd.ru/594212.jpg", "rate": 4.8, "views": 32381}, {"city": "Ла-Корунья", "title": "Виадук 21", "street": "Варшавская улица 64", "zipcode": "394855", "floors": 4, "year": 1988, "parking": "есть", "img_url": "https://upload.buildddd.ru/115592.svg", "rate": 4.2, "views": 32246}, {"city": "Касерес", "title": "Псарня 45", "street": "Краковская улица 66", "zipcode": "211395", "floors": 3, "year": 1869, "parking": "нет", "img_url": "https://upload.buildddd.ru/877847.webp", "rate": 4.9, "views": 32061}, {"city": "Хихон", "title": "Силок 46", "street": "Зеленая улица 50", "zipcode": "914858", "floors": 4, "year": 1890, "parking": "есть", "img_url": "https://upload.freebuild.xyz/955532.jpg", "rate": 4.1, "views": 31397}, {"city": "Вильнюс", "title": "Мансарда 70", "street": "Зеленая улица 31", "zipcode": "134771", "floors": 2, "year": 1755, "parking": "нет", "img_url": "https://upload.buybuild.org/595168.jpeg", "rate": 4.8, "views": 30295}, {"city": "Белград", "title": "Овчарня 22", "street": "Киевская улица 7", "zipcode": "289690", "floors": 9, "year": 1797, "parking": "нет", "img_url": "https://upload.buildddd.ru/376954.png", "rate": 4.6, "views": 29440}, {"city": "Хихон", "title": "Ресторан 58", "street": "Полевая улица 18", "zipcode": "135048", "floors": 6, "year": 1710, "parking": "есть", "img_url": "https://upload.build.com/426124.png", "rate": 4.6, "views": 29283}, {"city": "Картахена", "title": "Паутинник 52", "street": "Осенняя улица 31", "zipcode": "466806", "floors": 4, "year": 1978, "parking": "нет", "img_url": "https://upload.buildddd.ru/655549.jpg", "rate": 4.1, "views": 29087}, {"city": "Барселона", "title": "Курятник 41", "street": "Зеленая улица 73", "zipcode": "189682", "floors": 10, "year": 1981, "parking": "есть", "img_url": "https://upload.buildddd.ru/691299.webp", "rate": 4.4, "views": 28785}, {"city": "Камбадос", "title": "Университет 92", "street": "Варшавская улица 11", "zipcode": "840121", "floors": 5, "year": 1831, "parking": "нет", "img_url": "https://upload.freebuild.xyz/664986.webp", "rate": 4.4, "views": 26278}, {"city": "Сория", "title": "Электростанция 68", "street": "Киевская улица 75", "zipcode": "180586", "floors": 2, "year": 1824, "parking": "нет", "img_url": "https://upload.abc-build.it/166405.jpeg", "rate": 4.1, "views": 25520}, {"city": "Картахена", "title": "Университет 34", "street": "Парковая улица 32", "zipcode": "508694", "floors": 9, "year": 1736, "parking": "нет", "img_url": "https://upload.freebuild.xyz/534062.jpg", "rate": 4.7, "views": 25499}, {"city": "Кордова", "title": "Берлога 63", "street": "Зеленая улица 78", "zipcode": "501147", "floors": 5, "year": 1652, "parking": "нет", "img_url": "https://upload.buildddd.ru/52985.jpg", "rate": 4.7, "views": 24785}, {"city": "Афины", "title": "Верфь 91", "street": "Лесная улица 68", "zipcode": "743138", "floors": 1, "year": 1647, "parking": "нет", "img_url": "https://upload.freebuild.xyz/456003.webp", "rate": 4.0, "views": 22464}, {"city": "Сан-Себастьян", "title": "Ресторан 50", "street": "Лесная улица 58", "zipcode": "780690", "floors": 8, "year": 1698, "parking": "нет", "img_url": "https://upload.abc-build.it/386821.jpg", "rate": 4.2, "views": 22316}, {"city": "Алма-Ата", "title": "Магазин 47", "street": "Зимняя улица 77", "zipcode": "346884", "floors": 9, "year": 1745, "parking": "есть", "img_url": "https://upload.freebuild.xyz/505312.png", "rate": 5.0, "views": 22051}, {"city": "Картахена", "title": "Библиотека 42", "street": "Юбилейная улица 52", "zipcode": "706478", "floors": 2, "year": 1726, "parking": "нет", "img_url": "https://upload.build.com/174534.jpeg", "rate": 4.8, "views": 21782}, {"city": "Вильявисиоса", "title": "Пирс 36", "street": "Варшавская улица 18", "zipcode": "676385", "floors": 4, "year": 1967, "parking": "нет", "img_url": "https://upload.build.com/219260.jpg", "rate": 4.2, "views": 21572}, {"city": "Тудела", "title": "Цирк 98", "street": "Петербургская улица 70", "zipcode": "387487", "floors": 2, "year": 1805, "parking": "нет", "img_url": "https://upload.buildddd.ru/996948.jpg", "rate": 4.1, "views": 21212}, {"city": "Кишинев", "title": "Водопровод 92", "street": "Киевская улица 54", "zipcode": "428160", "floors": 6, "year": 1621, "parking": "есть", "img_url": "https://upload.buildddd.ru/803319.jpg", "rate": 4.6, "views": 21195}, {"city": "Овьедо", "title": "Чердак 91", "street": "Минская улица 30", "zipcode": "120684", "floors": 2, "year": 1601, "parking": "нет", "img_url": "https://upload.build.com/660616.webp", "rate": 4.6, "views": 20923}, {"city": "Тарраса", "title": "Школа 71", "street": "Летняя улица 17", "zipcode": "977127", "floors": 5, "year": 1717, "parking": "есть", "img_url": "https://upload.buildddd.ru/547217.jpg", "rate": 4.2, "views": 20575}, {"city": "Бургос", "title": "Университет 60", "street": "Спортивная улица 32", "zipcode": "457551", "floors": 1, "year": 1853, "parking": "есть", "img_url": "https://upload.build.com/697180.png", "rate": 4.8, "views": 19799}, {"city": "Вильнюс", "title": "Дуплянка 56", "street": "Полевая улица 36", "zipcode": "620219", "floors": 9, "year": 1836, "parking": "есть", "img_url": "https://upload.build.com/591452.png", "rate": 4.0, "views": 17642}, {"city": "Льейда", "title": "Нефтепровод 29", "street": "Полевая улица 13", "zipcode": "709018", "floors": 9, "year": 1677, "parking": "нет", "img_url": "https://upload.buybuild.org/881242.jpg", "rate": 4.2, "views": 16817}, {"city": "Сория", "title": "Особняк 92", "street": "Киевская улица 37", "zipcode": "182725", "floors": 3, "year": 1827, "parking": "нет", "img_url": "https://upload.freebuild.xyz/469788.jpeg", "rate": 4.6, "views": 16282}, {"city": "Виго", "title": "Кошара 33", "street": "Осенняя улица 74", "zipcode": "335781", "floors": 5, "year": 1962, "parking": "есть", "img_url": "https://upload.freebuild.xyz/194208.svg", "rate": 4.1, "views": 15896}, {"city": "Эль-Пуэрто-де-Санта-Мария", "title": "Подвал 19", "street": "Варшавская улица 57", "zipcode": "120786", "floors": 2, "year": 1637, "parking": "нет", "img_url": "https://upload.buybuild.org/196659.jpeg", "rate": 5.0, "views": 14958}, {"city": "Сан-Себастьян", "title": "Причал 33", "street": "Минская улица 3", "zipcode": "989707", "floors": 1, "year": 1846, "parking": "есть", "img_url": "https://upload.freebuild.xyz/560926.jpeg", "rate": 4.2, "views": 14744}, {"city": "Севилья", "title": "Мост 56", "street": "Московская улица 51", "zipcode": "651725", "floors": 7, "year": 1984, "parking": "есть", "img_url": "https://upload.buildddd.ru/270342.png", "rate": 4.6, "views": 14727}, {"city": "Сеговия", "title": "Парк 54", "street": "Морская улица 63", "zipcode": "602221", "floors": 4, "year": 1819, "parking": "нет", "img_url": "https://upload.buildddd.ru/777794.jpg", "rate": 4.6, "views": 14651}, {"city": "Санкт-Петербург", "title": "Крольчатник 32", "street": "Киевская улица 3", "zipcode": "456454", "floors": 4, "year": 1991, "parking": "есть", "img_url": "https://upload.buybuild.org/788056.png", "rate": 4.8, "views": 14434}, {"city": "Кадакес", "title": "Башня 49", "street": "Киевская улица 11", "zipcode": "760937", "floors": 7, "year": 1765, "parking": "нет", "img_url": "https://upload.build.com/785172.svg", "rate": 4.6, "views": 14307}, {"city": "Ташкент", "title": "Библиотека 11", "street": "Весенняя улица 69", "zipcode": "642373", "floors": 6, "year": 1791, "parking": "нет", "img_url": "https://upload.build.com/509542.svg", "rate": 4.1, "views": 13843}, {"city": "Кишинев", "title": "Гараж 5", "street": "Полевая улица 90", "zipcode": "723783", "floors": 4, "year": 2019, "parking": "есть", "img_url": "https://upload.buildddd.ru/686985.svg", "rate": 4.6, "views": 13745}, {"city": "Самора", "title": "Борть 97", "street": "Горная улица 7", "zipcode": "552405", "floors": 4, "year": 1875, "parking": "нет", "img_url": "https://upload.freebuild.xyz/999968.png", "rate": 4.6, "views": 13696}, {"city": "Санкт-Петербург", "title": "Бомбоубежище 57", "street": "Варшавская улица 77", "zipcode": "695269", "floors": 9, "year": 1907, "parking": "нет", "img_url": "https://upload.buildddd.ru/958207.png", "rate": 4.6, "views": 13165}, {"city": "Махадаонда", "title": "Нефтепровод 43", "street": "Краковская улица 20", "zipcode": "456759", "floors": 4, "year": 1796, "parking": "есть", "img_url": "https://upload.buybuild.org/246139.png", "rate": 4.3, "views": 12588}, {"city": "Баку", "title": "Вилла 43", "street": "Спортивная улица 7", "zipcode": "265901", "floors": 2, "year": 2015, "parking": "нет", "img_url": "https://upload.buybuild.org/457155.svg", "rate": 4.1, "views": 12146}, {"city": "Рига", "title": "Порт 3", "street": "Лесная улица 34", "zipcode": "586372", "floors": 5, "year": 1856, "parking": "есть", "img_url": "https://upload.buybuild.org/247002.webp", "rate": 4.2, "views": 12070}, {"city": "Гранада", "title": "Пирс 79", "street": "Лесная улица 65", "zipcode": "877106", "floors": 3, "year": 1853, "parking": "есть", "img_url": "https://upload.freebuild.xyz/622587.jpeg", "rate": 4.4, "views": 11712}, {"city": "Монсон", "title": "Котельная 41", "street": "Киевская улица 97", "zipcode": "917285", "floors": 1, "year": 1938, "parking": "нет", "img_url": "https://upload.buildddd.ru/504268.png", "rate": 4.6, "views": 11391}, {"city": "Сараево", "title": "Автомойка 62", "street": "Центральная улица 63", "zipcode": "658056", "floors": 2, "year": 1889, "parking": "есть", "img_url": "https://upload.freebuild.xyz/654937.jpg", "rate": 4.2, "views": 11013}, {"city": "Москва", "title": "Кафе 1", "street": "Горная улица 61", "zipcode": "481771", "floors": 5, "year": 1787, "parking": "есть", "img_url": "https://upload.buybuild.org/465159.jpg", "rate": 4.3, "views": 9459}, {"city": "Бишкек", "title": "Офис 68", "street": "Зимняя улица 41", "zipcode": "781995", "floors": 4, "year": 1932, "parking": "есть", "img_url": "https://upload.buybuild.org/908338.jpg", "rate": 4.0, "views": 7318}, {"city": "Лас-Росас", "title": "Ферма 87", "street": "Горная улица 91", "zipcode": "291507", "floors": 6, "year": 1696, "parking": "есть", "img_url": "https://upload.abc-build.it/876056.png", "rate": 4.5, "views": 7249}, {"city": "Краков", "title": "Завод 31", "street": "Полевая улица 74", "zipcode": "636366", "floors": 7, "year": 1661, "parking": "есть", "img_url": "https://upload.buybuild.org/435288.webp", "rate": 4.2, "views": 7078}, {"city": "Луго", "title": "Курятник 63", "street": "Осенняя улица 98", "zipcode": "311053", "floors": 1, "year": 1880, "parking": "нет", "img_url": "https://upload.buildddd.ru/3683.webp", "rate": 4.8, "views": 6996}, {"city": "Сантьяго-де-Компостела", "title": "Осатаник 19", "street": "Летняя улица 92", "zipcode": "341829", "floors": 1, "year": 1996, "parking": "нет", "img_url": "https://upload.abc-build.it/132717.webp", "rate": 4.6, "views": 6569}, {"city": "Тбилиси", "title": "Маяк 96", "street": "Лесная улица 18", "zipcode": "102152", "floors": 4, "year": 1898, "parking": "нет", "img_url": "https://upload.buildddd.ru/152372.webp", "rate": 4.7, "views": 6098}, {"city": "Кишинев", "title": "Бункер 89", "street": "Петербургская улица 67", "zipcode": "852905", "floors": 2, "year": 1773, "parking": "есть", "img_url": "https://upload.abc-build.it/147557.jpeg", "rate": 4.9, "views": 6045}, {"city": "Вроцлав", "title": "Теплотрасса 7", "street": "Речная улица 41", "zipcode": "234648", "floors": 1, "year": 1991, "parking": "нет", "img_url": "https://upload.buildddd.ru/511294.svg", "rate": 4.3, "views": 5609}, {"city": "Сеговия", "title": "Цирк 87", "street": "Спортивная улица 94", "zipcode": "661168", "floors": 9, "year": 1806, "parking": "нет", "img_url": "https://upload.buildddd.ru/680981.svg", "rate": 4.3, "views": 5135}, {"city": "Аликанте", "title": "Школа 96", "street": "Садовая улица 68", "zipcode": "408326", "floors": 2, "year": 1742, "parking": "есть", "img_url": "https://upload.build.com/441085.jpg", "rate": 4.0, "views": 4868}, {"city": "Прага", "title": "Конюшня 95", "street": "Парковая улица 46", "zipcode": "820191", "floors": 8, "year": 1802, "parking": "нет", "img_url": "https://upload.build.com/380670.webp", "rate": 4.6, "views": 4801}, {"city": "Любляна", "title": "Лифт 97", "street": "Зеленая улица 19", "zipcode": "245768", "floors": 3, "year": 1700, "parking": "нет", "img_url": "https://upload.build.com/979671.jpg", "rate": 4.9, "views": 4484}, {"city": "Сан-Себастьян", "title": "Театр 26", "street": "Спортивная улица 42", "zipcode": "309386", "floors": 8, "year": 2005, "parking": "есть", "img_url": "https://upload.abc-build.it/553942.png", "rate": 4.7, "views": 4149}, {"city": "Санкт-Петербург", "title": "Улей 18", "street": "Летняя улица 22", "zipcode": "267192", "floors": 10, "year": 1746, "parking": "нет", "img_url": "https://upload.abc-build.it/121484.svg", "rate": 4.1, "views": 3812}, {"city": "Санхенхо", "title": "Йодль 58", "street": "Спортивная улица 82", "zipcode": "968931", "floors": 2, "year": 2019, "parking": "есть", "img_url": "https://upload.freebuild.xyz/74415.webp", "rate": 4.6, "views": 2969}, {"city": "Бланес", "title": "Шмелиное гнездо 37", "street": "Зимняя улица 75", "zipcode": "831514", "floors": 8, "year": 1715, "parking": "есть", "img_url": "https://upload.freebuild.xyz/756452.png", "rate": 4.4, "views": 2502}, {"city": "Бишкек", "title": "Шале 54", "street": "Московская улица 80", "zipcode": "775063", "floors": 3, "year": 1875, "parking": "нет", "img_url": "https://upload.abc-build.it/249234.svg", "rate": 4.0, "views": 2354}, {"city": "Алькала-де-Энарес", "title": "Газопровод 46", "street": "Летняя улица 26", "zipcode": "296498", "floors": 7, "year": 1823, "parking": "нет", "img_url": "https://upload.freebuild.xyz/428007.svg", "rate": 4.8, "views": 2127}, {"city": "Артейхо", "title": "Мануфактура 16", "street": "Морская улица 61", "zipcode": "931991", "floors": 3, "year": 1961, "parking": "нет", "img_url": "https://upload.build.com/176896.jpeg", "rate": 4.5, "views": 2113}, {"city": "Овьедо", "title": "Плантация 83", "street": "Московская улица 8", "zipcode": "631576", "floors": 3, "year": 1770, "parking": "есть", "img_url": "https://upload.buybuild.org/681795.jpg", "rate": 4.1, "views": 1702}, {"city": "Сантьяго-де-Компостела", "title": "Музей 78", "street": "Минская улица 42", "zipcode": "518470", "floors": 2, "year": 1771, "parking": "есть", "img_url": "https://upload.build.com/554868.png", "rate": 4.3, "views": 1605}, {"city": "Монсон", "title": "Маяк 88", "street": "Школьная улица 77", "zipcode": "527021", "floors": 8, "year": 1857, "parking": "нет", "img_url": "https://upload.buybuild.org/18841.png", "rate": 4.0, "views": 1570}, {"city": "Тирана", "title": "Замок 57", "street": "Спортивная улица 53", "zipcode": "880300", "floors": 8, "year": 1946, "parking": "нет", "img_url": "https://upload.buybuild.org/66715.jpeg", "rate": 4.6, "views": 808}]